NORAD_CAT_ID,OBJECT_NAME,OBJECT_TYPE,EPOCH,MEAN_MOTION,ECCENTRICITY,INCLINATION,RA_OF_ASC_NODE,ARG_OF_PERICENTER,MEAN_ANOMALY,BSTAR,MEAN_MOTION_DOT,MEAN_MOTION_DDOT,TLE_LINE0,TLE_LINE1,TLE_LINE2,SEMIMAJOR_AXIS,PERIOD,APOGEE,PERIGEE,DECAYED
52539.0,STARLINK-3757,PAYLOAD,2022-06-09 14:00:01,15.58941816,0.0001151,53.2171,161.6196,58.6879,358.5229,-0.0098606,-0.00714212,0.0,0 STARLINK-3757,1 52539U 22051G   22160.58334491 -.00714212  00000-0 -98606-2 0  9992,2 52539  53.2171 161.6196 0001151  58.6879 358.5229 15.58941816  1302,6768.855,92.37,391.5,389.941,0.0
52539.0,STARLINK-3757,PAYLOAD,2022-06-09 22:00:00,15.58432243,0.0001296999999999,53.2172,160.0023,56.8193,71.8775,-0.010083,-0.00716137,0.0,0 STARLINK-3757,1 52539U 22051G   22160.91667824 -.00716137  00000-0 -10083-1 0  9998,2 52539  53.2172 160.0023 0001297  56.8193  71.8775 15.58432243  1305,6770.331,92.401,393.074,391.318,0.0
52539.0,STARLINK-3757,PAYLOAD,2022-06-10 00:00:00,15.58304138,0.0001347,53.2175,159.5986,65.7751,170.6968,-0.010084,-0.00713021,0.0,0 STARLINK-3757,1 52539U 22051G   22161.00001157 -.00713021  00000-0 -10084-1 0  9990,2 52539  53.2175 159.5986 0001347  65.7751 170.6968 15.58304138  4793,6770.7019999999975,92.408,393.479,391.655,0.0
52539.0,STARLINK-3757,PAYLOAD,2022-06-10 14:00:01,15.57413588,0.0001238,53.2172,156.7761,66.9324,202.8946,-0.010503,-0.00717601,0.0,0 STARLINK-3757,1 52539U 22051G   22161.58334491 -.00717601  00000-0 -10503-1 0  9997,2 52539  53.2172 156.7761 0001238  66.9324 202.8946 15.57413588  1305,6773.283,92.461,395.986,394.309,0.0
52539.0,STARLINK-3757,PAYLOAD,2022-06-10 22:00:00,15.56899682,0.0001168,53.2173,155.1626,60.8918,278.5841,-0.010607,-0.00711373,0.0,0 STARLINK-3757,1 52539U 22051G   22161.91667824 -.00711373  00000-0 -10607-1 0  9998,2 52539  53.2173 155.1626 0001168  60.8918 278.5841 15.56899682  4942,6774.773,92.492,397.429,395.847,0.0
52539.0,STARLINK-3757,PAYLOAD,2022-06-11 22:00:00,15.55372109,0.0001441999999999,53.2174,150.3344,56.895,127.843,-0.011282,-0.00714473,0.0,0 STARLINK-3757,1 52539U 22051G   22162.91667824 -.00714473  00000-0 -11282-1 0  9993,2 52539  53.2174 150.3344 0001442  56.8950 127.8430 15.55372109  5099,6779.208000000001,92.582,402.051,400.096,0.0
52539.0,STARLINK-3757,PAYLOAD,2022-06-12 14:00:01,15.54353069,0.0001167,53.2172,147.1232,66.8167,251.6984,-0.01174,-0.00715814,0.0,0 STARLINK-3757,1 52539U 22051G   22163.58334491 -.00715814  00000-0 -11740-1 0  9997,2 52539  53.2172 147.1232 0001167  66.8167 251.6984 15.54353069  1305,6782.170999999999,92.643,404.827,403.244,0.0
52539.0,STARLINK-3757,PAYLOAD,2022-06-12 22:00:00,15.53840152,0.0001268,53.2174,145.5174,53.1535,331.3331,-0.011874,-0.00710929,0.0,0 STARLINK-3757,1 52539U 22051G   22163.91667824 -.00710929  00000-0 -11874-1 0  9993,2 52539  53.2174 145.5174 0001268  53.1535 331.3331 15.53840152  5257,6783.663000000001,92.674,406.388,404.668,0.0
52539.0,STARLINK-3757,PAYLOAD,2022-06-13 14:00:01,15.52822461,0.0001284999999999,53.2171,142.3134,63.6541,90.9324,-0.012387,-0.0071426999999999,0.0,0 STARLINK-3757,1 52539U 22051G   22164.58334491 -.00714270  00000-0 -12387-1 0  9991,2 52539  53.2171 142.3134 0001285  63.6541  90.9324 15.52822461  1301,6786.627,92.734,409.364,407.62,0.0
52539.0,STARLINK-3757,PAYLOAD,2022-06-13 22:00:00,15.52311592,0.0001414,53.2173,140.7113,60.6911,158.0276,-0.012574,-0.00711958,0.0,0 STARLINK-3757,1 52539U 22051G   22164.91667824 -.00711958  00000-0 -12574-1 0  9995,2 52539  53.2173 140.7113 0001414  60.6911 158.0276 15.52311592  1304,6788.116,92.765,410.941,409.021,0.0
52539.0,STARLINK-3757,PAYLOAD,2022-06-14 14:00:01,15.51293086,0.0001404,53.2174,137.5145,45.1237,300.0188,-0.013107,-0.00724226,0.0,0 STARLINK-3757,1 52539U 22051G   22165.58334491 -.00724226  00000-0 -13107-1 0  9995,2 52539  53.2174 137.5145 0001404  45.1237 300.0188 15.51293086  1309,6791.087,92.826,413.905,411.99800000000016,0.0
52539.0,STARLINK-3757,PAYLOAD,2022-06-14 22:00:00,15.50780923,0.0001258,53.2175,135.9166,56.727,350.7097,-0.013271,-0.00720225,0.0,0 STARLINK-3757,1 52539U 22051G   22165.91667824 -.00720225  00000-0 -13271-1 0  9998,2 52539  53.2175 135.9166 0001258  56.7270 350.7097 15.50780923  5560,6792.581999999999,92.856,415.301,413.592,0.0
52539.0,STARLINK-3757,PAYLOAD,2022-06-15 14:00:01,15.49888193,0.0001356,53.2173,132.7284,58.2489,111.9546,-9.0061e-05,-5.56e-05,0.0,0 STARLINK-3757,1 52539U 22051G   22166.58334491 -.00005560  00000-0 -90061-4 0  9996,2 52539  53.2173 132.7284 0001356  58.2489 111.9546 15.49888193  5665,6795.19,92.91,417.976,416.133,0.0
52539.0,STARLINK-3757,PAYLOAD,2022-06-15 22:00:00,15.49595752,0.0001339,53.217,131.1359,65.9249,165.3493,0.0077694999999999,0.00462892,0.0,0 STARLINK-3757,1 52539U 22051G   22166.91667824  .00462892  00000-0  77695-2 0  9991,2 52539  53.2170 131.1359 0001339  65.9249 165.3493 15.49595752  1305,6796.045,92.927,418.82,417.0,0.0
52539.0,STARLINK-3757,PAYLOAD,2022-06-16 02:00:01,15.49972256,0.00013,53.2166,130.3481,55.8875,25.8719,-0.002057,-0.00115843,0.0,0 STARLINK-3757,1 52539U 22051G   22167.08334491 -.00115843  00000-0 -20570-2 0  9994,2 52539  53.2166 130.3481 0001300  55.8875  25.8719 15.49972256  1307,6794.944,92.905,417.692,415.926,0.0
52539.0,STARLINK-3757,PAYLOAD,2022-06-19 14:00:01,15.45996629,0.0001441999999999,53.2174,113.6354,54.7802,108.547,-0.015705,-0.00720275,0.0,0 STARLINK-3757,1 52539U 22051G   22170.58334491 -.00720275  00000-0 -15705-1 0  9997,2 52539  53.2174 113.6354 0001442  54.7802 108.5470 15.45996629  1303,6806.5880000000025,93.144,429.435,427.472,0.0
52539.0,STARLINK-3757,PAYLOAD,2022-06-19 20:00:01,15.45613576,0.0001493,53.2176,112.4466,47.9131,67.4198,-0.015882,-0.00718933,0.0,0 STARLINK-3757,1 52539U 22051G   22170.83334491 -.00718933  00000-0 -15882-1 0  9999,2 52539  53.2176 112.4466 0001493  47.9131  67.4198 15.45613576  6325,6807.7130000000025,93.167,430.594,428.561,0.0
52539.0,STARLINK-3757,PAYLOAD,2022-06-19 22:00:00,15.45485746,0.0001551999999999,53.2177,112.0511,53.1194,166.1387,-0.015939,-0.00718393,0.0,0 STARLINK-3757,1 52539U 22051G   22170.91667824 -.00718393  00000-0 -15939-1 0  9990,2 52539  53.2177 112.0511 0001552  53.1194 166.1387 15.45485746  1303,6808.0880000000025,93.175,431.01,428.897,0.0
52539.0,STARLINK-3757,PAYLOAD,2022-06-20 14:00:01,15.44467729,0.0001250999999999,53.2174,108.8858,60.5332,268.7479,-0.016603,-0.00722255,0.0,0 STARLINK-3757,1 52539U 22051G   22171.58334491 -.00722255  00000-0 -16603-1 0  9996,2 52539  53.2174 108.8858 0001251  60.5332 268.7479 15.44467729  1300,6811.079000000002,93.236,433.797,432.092,0.0
52539.0,STARLINK-3757,PAYLOAD,2022-06-20 22:00:00,15.43957747,0.000124,53.2176,107.3053,53.6389,329.7343,-0.016881,-0.00721709,0.0,0 STARLINK-3757,1 52539U 22051G   22171.91667824 -.00721709  00000-0 -16881-1 0  9993,2 52539  53.2176 107.3053 0001240  53.6389 329.7343 15.43957747  6492,6812.579000000002,93.267,435.289,433.599,0.0
52539.0,STARLINK-3757,PAYLOAD,2022-06-21 14:00:01,15.42935327,0.0001365,53.2174,104.1472,55.243,74.47800000000002,-0.017369,-0.00717569,0.0,0 STARLINK-3757,1 52539U 22051G   22172.58334491 -.00717569  00000-0 -17369-1 0  9999,2 52539  53.2174 104.1472 0001365  55.2430  74.4780 15.42935327  1306,6815.5880000000025,93.329,438.384,436.523,0.0
52539.0,STARLINK-3757,PAYLOAD,2022-06-21 22:00:00,15.42425818,0.0001473,53.2174,102.5703,59.1978,122.7769,-0.017689,-0.00718274,0.0,0 STARLINK-3757,1 52539U 22051G   22172.91667824 -.00718274  00000-0 -17689-1 0  9994,2 52539  53.2174 102.5703 0001473  59.1978 122.7769 15.42425818  1308,6817.089,93.359,439.958,437.95,0.0
52539.0,STARLINK-3757,PAYLOAD,2022-06-22 00:00:02,15.42297814,0.0001373,53.2173,102.1767,62.42100000000001,222.5854,-0.017735,-0.00717117,0.0,0 STARLINK-3757,1 52539U 22051G   22173.00002315 -.00717117  00000-0 -17735-1 0  9990,2 52539  53.2173 102.1767 0001373  62.4210 222.5854 15.42297814  6669,6817.467,93.367,440.268,438.395,0.0
52539.0,STARLINK-3757,PAYLOAD,2022-06-22 14:00:01,15.41406007,0.0001355,53.2175,99.4192,58.3087,226.3361,-0.018309,-0.00718367,0.0,0 STARLINK-3757,1 52539U 22051G   22173.58334491 -.00718367  00000-0 -18309-1 0  9992,2 52539  53.2175  99.4192 0001355  58.3087 226.3361 15.41406007  1303,6820.096,93.421,442.885,441.037,0.0
52539.0,STARLINK-3757,PAYLOAD,2022-06-22 22:00:00,15.40897225,0.0001361,53.2176,97.8463,55.1085,279.9512,-0.018675,-0.00720217,0.0,0 STARLINK-3757,1 52539U 22051G   22173.91667824 -.00720217  00000-0 -18675-1 0  9991,2 52539  53.2176  97.8463 0001361  55.1085 279.9512 15.40897225  1304,6821.597,93.452,444.39,442.534,0.0
52539.0,STARLINK-3757,PAYLOAD,2022-06-23 06:00:00,15.403852300000002,0.0001258,53.2174,96.2754,55.389,329.4735,-0.018881,-0.00716152,0.0,0 STARLINK-3757,1 52539U 22051G   22174.25001157 -.00716152  00000-0 -18881-1 0  9992,2 52539  53.2174  96.2754 0001258  55.3890 329.4735 15.40385230  6850,6823.109,93.483,445.832,444.115,0.0
52539.0,STARLINK-3757,PAYLOAD,2022-06-23 14:00:01,15.39875339,0.0001358,53.2175,94.7024,48.9373,25.1169,-0.019235,-0.00717254,0.0,0 STARLINK-3757,1 52539U 22051G   22174.58334491 -.00717254  00000-0 -19235-1 0  9996,2 52539  53.2175  94.7024 0001358  48.9373  25.1169 15.39875339  1307,6824.615,93.514,447.406,445.55300000000005,0.0
52539.0,STARLINK-3757,PAYLOAD,2022-06-23 22:00:00,15.39366613,0.0001597,53.2175,93.1332,45.306,77.3245,-0.019617,-0.00719168,0.0,0 STARLINK-3757,1 52539U 22051G   22174.91667824 -.00719168  00000-0 -19617-1 0  9992,2 52539  53.2175  93.1332 0001597  45.3060  77.3245 15.39366613  1305,6826.118,93.545,449.073,446.893,0.0
52539.0,STARLINK-3757,PAYLOAD,2022-06-24 06:00:02,15.38853605,0.000143,53.2172,91.5656,58.1434,112.5162,-0.019778,-0.00713344,0.0,0 STARLINK-3757,1 52539U 22051G   22175.25002315 -.00713344  00000-0 -19778-1 0  9996,2 52539  53.2172  91.5656 0001430  58.1434 112.5162 15.38853605  7000,6827.635,93.576,450.476,448.524,0.0
